NORAD_CAT_ID,OBJECT_NAME,OBJECT_TYPE,EPOCH,MEAN_MOTION,ECCENTRICITY,INCLINATION,RA_OF_ASC_NODE,ARG_OF_PERICENTER,MEAN_ANOMALY,BSTAR,MEAN_MOTION_DOT,MEAN_MOTION_DDOT,TLE_LINE0,TLE_LINE1,TLE_LINE2,SEMIMAJOR_AXIS,PERIOD,APOGEE,PERIGEE,DECAYED
54157.0,STARLINK-5290,PAYLOAD,2024-02-17 13:47:44,15.08843743,0.0001229,53.2159,146.0645,94.9645,265.1487,2.8904e-05,1.72e-06,0.0,0 STARLINK-5290,1 54157U 22141A   24048.57482113  .00000172  00000-0  28904-4 0  9998,2 54157  53.2159 146.0645 0001229  94.9645 265.1487 15.08843743 72326,6917.869,95.437,540.584,538.884,0.0
54157.0,STARLINK-5290,PAYLOAD,2024-02-17 15:23:07,15.08845075,0.0001309,53.2163,145.7679,100.0187,260.0953,4.2054e-05,3.82e-06,0.0,0 STARLINK-5290,1 54157U 22141A   24048.64105980  .00000382  00000-0  42054-4 0  9995,2 54157  53.2163 145.7679 0001309 100.0187 260.0953 15.08845075 72336,6917.865,95.437,540.635,538.824,0.0
54157.0,STARLINK-5290,PAYLOAD,2024-02-18 13:38:32,15.08838915,0.0001596,53.2165,141.604,78.0182,282.0989,-1.2641e-05,-4.89e-06,0.0,0 STARLINK-5290,1 54157U 22141A   24049.56842853 -.00000489  00000-0 -12641-4 0  9993,2 54157  53.2165 141.6040 0001596  78.0182 282.0989 15.08838915 72475,6917.884,95.438,540.853,538.645,0.0
54157.0,STARLINK-5290,PAYLOAD,2024-02-18 15:13:55,15.08841282,0.0001794,53.2161,141.3047,83.8854,276.2342,1.5739e-05,-3.8e-07,0.0,0 STARLINK-5290,1 54157U 22141A   24049.63466680 -.00000038  00000-0  15739-4 0  9991,2 54157  53.2161 141.3047 0001794  83.8854 276.2342 15.08841282 72485,6917.876,95.437,540.983,538.5,0.0
54157.0,STARLINK-5290,PAYLOAD,2024-02-19 13:29:18,15.08843955,0.0001325,53.2158,137.1426,87.501,272.6134,7.2815e-05,8.71e-06,0.0,0 STARLINK-5290,1 54157U 22141A   24050.56202459  .00000871  00000-0  72815-4 0  9999,2 54157  53.2158 137.1426 0001325  87.5010 272.6134 15.08843955 72624,6917.868,95.437,540.65,538.817,0.0
54157.0,STARLINK-5290,PAYLOAD,2024-02-19 23:01:37,15.08845153,0.0001421,53.2158,135.3588,82.2759,277.8394,4.3954e-05,4.12e-06,0.0,0 STARLINK-5290,1 54157U 22141A   24050.95946333  .00000412  00000-0  43954-4 0  9991,2 54157  53.2158 135.3588 0001421  82.2759 277.8394 15.08845153 72685,6917.865,95.437,540.713,538.747,0.0
54157.0,STARLINK-5290,PAYLOAD,2024-02-20 11:44:42,15.0884152,0.0001484,53.216,132.9798,85.1334,274.9827,0.00010622,1.403e-05,0.0,0 STARLINK-5290,1 54157U 22141A   24051.48938634  .00001403  00000-0  10622-3 0  9991,2 54157  53.2160 132.9798 0001484  85.1334 274.9827 15.08841520 72766,6917.876,95.437,540.767,538.714,0.0
54157.0,STARLINK-5290,PAYLOAD,2024-02-21 14:46:15,15.08851855,0.0001492,53.2162,127.9225,92.5856,267.5307,8.6256e-05,1.085e-05,0.0,0 STARLINK-5290,1 54157U 22141A   24052.61545636  .00001085  00000-0  86256-4 0  9996,2 54157  53.2162 127.9225 0001492  92.5856 267.5307 15.08851855 72939,6917.844,95.437,540.741,538.677,0.0
54157.0,STARLINK-5290,PAYLOAD,2024-02-22 11:26:17,15.08835735,0.0001557,53.217,124.0586,83.0424,277.0745,-1.3939e-06,-3.1e-06,0.0,0 STARLINK-5290,1 54157U 22141A   24053.47659029 -.00000310  00000-0 -13939-5 0  9994,2 54157  53.2170 124.0586 0001557  83.0424 277.0745 15.08835735 73060,6917.893,95.438,540.836,538.681,0.0
54157.0,STARLINK-5290,PAYLOAD,2024-02-23 11:17:03,15.08852056,0.0001508,53.2166,119.5973,78.1223,281.9938,6.613e-05,7.65e-06,0.0,0 STARLINK-5290,1 54157U 22141A   24054.47017775  .00000765  00000-0  66130-4 0  9993,2 54157  53.2166 119.5973 0001508  78.1223 281.9938 15.08852056 73212,6917.844,95.437,540.752,538.665,0.0
54157.0,STARLINK-5290,PAYLOAD,2024-02-23 20:49:22,15.08843157,0.000159,53.216,117.81,76.7993,283.3176,6.9728e-06,-1.77e-06,0.0,0 STARLINK-5290,1 54157U 22141A   24054.86762355 -.00000177  00000-0  69728-5 0  9992,2 54157  53.2160 117.8100 0001590  76.7993 283.3176 15.08843157 73276,6917.871,95.437,540.836,538.636,0.0
54157.0,STARLINK-5290,PAYLOAD,2024-02-24 11:07:51,15.08832407,0.0001681,53.2176,115.1391,91.9653,268.1532,5.6201e-05,6.06e-06,0.0,0 STARLINK-5290,1 54157U 22141A   24055.46379333  .00000606  00000-0  56201-4 0  9996,2 54157  53.2176 115.1391 0001681  91.9653 268.1532 15.08832407 73362,6917.904,95.438,540.931,538.606,0.0
54157.0,STARLINK-5290,PAYLOAD,2024-02-24 12:43:14,15.08833895,0.0001621,53.2182,114.8408,84.1226,275.9951,6.1776e-05,6.95e-06,0.0,0 STARLINK-5290,1 54157U 22141A   24055.53003289  .00000695  00000-0  61776-4 0  9999,2 54157  53.2182 114.8408 0001621  84.1226 275.9951 15.08833895 73372,6917.899,95.438,540.885,538.643,0.0
54157.0,STARLINK-5290,PAYLOAD,2024-02-24 20:40:10,15.08835549,0.0001628,53.2181,113.3541,85.2514,274.8664,4.345e-05,4.03e-06,0.0,0 STARLINK-5290,1 54157U 22141A   24055.86123333  .00000403  00000-0  43450-4 0  9994,2 54157  53.2181 113.3541 0001628  85.2514 274.8664 15.08835549 73425,6917.894,95.438,540.885,538.633,0.0
54157.0,STARLINK-5290,PAYLOAD,2024-02-25 10:58:38,15.08848752,0.0001592,53.2176,110.6771,86.8387,273.2787,5.5585e-05,5.97e-06,0.0,0 STARLINK-5290,1 54157U 22141A   24056.45738447  .00000597  00000-0  55585-4 0  9994,2 54157  53.2176 110.6771 0001592  86.8387 273.2787 15.08848752 73518,6917.854,95.437,540.82,538.617,0.0
54157.0,STARLINK-5290,PAYLOAD,2024-02-25 14:09:23,15.08853681,0.0001618,53.2174,110.0819,91.8746,268.2431,9.505e-05,1.226e-05,0.0,0 STARLINK-5290,1 54157U 22141A   24056.58985955  .00001226  00000-0  95050-4 0  9997,2 54157  53.2174 110.0819 0001618  91.8746 268.2431 15.08853681 73536,6917.839,95.437,540.823,538.584,0.0
54157.0,STARLINK-5290,PAYLOAD,2024-02-25 20:30:57,15.08843002,0.0001705,53.217,108.8876,79.8992,280.2193,7.145e-05,8.49e-06,0.0,0 STARLINK-5290,1 54157U 22141A   24056.85482663  .00000849  00000-0  71450-4 0  9993,2 54157  53.2170 108.8876 0001705  79.8992 280.2193 15.08843002 73575,6917.871,95.437,540.916,538.557,0.0
54157.0,STARLINK-5290,PAYLOAD,2024-02-26 10:49:25,15.08842899,0.0001604,53.217,106.2115,74.969,285.1479,9.4776e-05,1.221e-05,0.0,0 STARLINK-5290,1 54157U 22141A   24057.45098703  .00001221  00000-0  94776-4 0  9999,2 54157  53.2170 106.2115 0001604  74.9690 285.1479 15.08842899 73666,6917.872,95.437,540.846,538.627,0.0
54157.0,STARLINK-5290,PAYLOAD,2024-02-27 02:43:17,15.08838738,0.0001644,53.216,103.2417,89.903,270.2151,3.0684e-05,2e-06,0.0,0 STARLINK-5290,1 54157U 22141A   24058.11339203  .00000200  00000-0  30684-4 0  9990,2 54157  53.2160 103.2417 0001644  89.9030 270.2151 15.08838738 73765,6917.884,95.438,540.887,538.612,0.0
54157.0,STARLINK-5290,PAYLOAD,2024-02-27 10:40:13,15.08837735,0.0001533,53.216,101.7544,90.8351,269.2816,-4.0401e-05,-9.31e-06,0.0,0 STARLINK-5290,1 54157U 22141A   24058.44459493 -.00000931  00000-0 -40401-4 0  9991,2 54157  53.2160 101.7544 0001533  90.8351 269.2816 15.08837735 73811,6917.887,95.438,540.813,538.692,0.0
54157.0,STARLINK-5290,PAYLOAD,2024-02-27 20:12:31,15.08842328,0.0001549,53.2171,99.9699,86.6843,273.4326,-3.7883e-05,-8.91e-06,0.0,0 STARLINK-5290,1 54157U 22141A   24058.84203198 -.00000891  00000-0 -37883-4 0  9999,2 54157  53.2171  99.9699 0001549  86.6843 273.4326 15.08842328 73871,6917.873,95.437,540.81,538.667,0.0
54157.0,STARLINK-5290,PAYLOAD,2024-02-28 08:55:36,15.088448,0.0001482,53.217,97.5912,90.5499,269.5663,8.6231e-05,1.085e-05,0.0,0 STARLINK-5290,1 54157U 22141A   24059.37194692  .00001085  00000-0  86231-4 0  9991,2 54157  53.2170  97.5912 0001482  90.5499 269.5663 15.08844800 73955,6917.866,95.437,540.756,538.705,0.0
54157.0,STARLINK-5290,PAYLOAD,2024-02-28 20:03:18,15.08844025,0.0001417,53.2161,95.5091,91.1519,268.9635,3.3622e-05,2.47e-06,0.0,0 STARLINK-5290,1 54157U 22141A   24059.83562747  .00000247  00000-0  33622-4 0  9997,2 54157  53.2161  95.5091 0001417  91.1519 268.9635 15.08844025 74029,6917.868,95.437,540.713,538.753,0.0
54157.0,STARLINK-5290,PAYLOAD,2024-02-29 11:57:09,15.08840072,0.0001487,53.2163,92.5349,94.2979,265.8183,9.9619e-05,1.298e-05,0.0,0 STARLINK-5290,1 54157U 22141A   24060.49802994  .00001298  00000-0  99619-4 0  9997,2 54157  53.2163  92.5349 0001487  94.2979 265.8183 15.08840072 74128,6917.88,95.438,540.774,538.716,0.0
54157.0,STARLINK-5290,PAYLOAD,2024-03-01 11:47:57,15.08839384,0.000149,53.217,88.072,95.1435,264.9727,-4.4118e-05,-9.9e-06,0.0,0 STARLINK-5290,1 54157U 22141A   24061.49163641 -.00000990  00000-0 -44118-4 0  9991,2 54157  53.2170  88.0720 0001490  95.1435 264.9727 15.08839384 74274,6917.882,95.438,540.778,538.717,0.0
54157.0,STARLINK-5290,PAYLOAD,2024-03-02 06:52:34,15.08841069,0.0001449,53.2166,84.5047,97.7272,262.3885,9.1541e-05,1.169e-05,0.0,0 STARLINK-5290,1 54157U 22141A   24062.28651229  .00001169  00000-0  91541-4 0  9992,2 54157  53.2166  84.5047 0001449  97.7272 262.3885 15.08841069 74396,6917.877,95.437,540.745,538.74,0.0
54157.0,STARLINK-5290,PAYLOAD,2024-03-02 18:00:15,15.08861397,0.0001535,53.2178,82.4228,100.8517,259.2648,0.00016481,2.337e-05,0.0,0 STARLINK-5290,1 54157U 22141A   24062.75017461  .00002337  00000-0  16481-3 0  9995,2 54157  53.2178  82.4228 0001535 100.8517 259.2648 15.08861397 74467,6917.815,95.436,540.742,538.618,0.0
54157.0,STARLINK-5290,PAYLOAD,2024-03-03 09:54:08,15.08836534,0.0001291,53.2166,79.4515,93.0238,267.0902,-2.2094e-05,-6.39e-06,0.0,0 STARLINK-5290,1 54157U 22141A   24063.41259260 -.00000639  00000-0 -22094-4 0  9997,2 54157  53.2166  79.4515 0001291  93.0238 267.0902 15.08836534 74567,6917.891,95.438,540.649,538.863,0.0
54157.0,STARLINK-5290,PAYLOAD,2024-03-04 06:34:09,15.08837183,0.0001363,53.2164,75.5856,87.0841,273.0308,-7.5052e-05,-1.482e-05,0.0,0 STARLINK-5290,1 54157U 22141A   24064.27371770 -.00001482  00000-0 -75052-4 0  9992,2 54157  53.2164  75.5856 0001363  87.0841 273.0308 15.08837183 74695,6917.889,95.438,540.697,538.811,0.0
54157.0,STARLINK-5290,PAYLOAD,2024-03-04 17:41:50,15.08841887,0.00013,53.2162,73.5026,93.8078,266.3063,-0.00011268,-2.081e-05,0.0,0 STARLINK-5290,1 54157U 22141A   24064.73739465 -.00002081  00000-0 -11268-3 0  9996,2 54157  53.2162  73.5026 0001300  93.8078 266.3063 15.08841887 74765,6917.875,95.437,540.639,538.84,0.0
